[
    {
        "CCSDS_OMM_VERS": "3.0",
        "COMMENT": "GENERATED VIA SPACE-TRACK.ORG API",
        "CREATION_DATE": "2025-03-02T18:08:23",
        "ORIGINATOR": "18 SPCS",
        "OBJECT_NAME": "COSMOS 2460 (GLONASS)",
        "OBJECT_ID": "2010-007C",
        "CENTER_NAME": "EARTH",
        "REF_FRAME": "TEME",
        "TIME_SYSTEM": "UTC",
        "MEAN_ELEMENT_THEORY": "SGP4",
        "EPOCH": "2025-03-02T05:42:59.251392",
        "MEAN_MOTION": "2.13106037",
        "ECCENTRICITY": "0.00021090",
        "INCLINATION": "65.6773",
        "RA_OF_ASC_NODE": "330.3938",
        "ARG_OF_PERICENTER": "358.2719",
        "MEAN_ANOMALY": "119.7581",
        "EPHEMERIS_TYPE": "0",
        "CLASSIFICATION_TYPE": "U",
        "NORAD_CAT_ID": "36402",
        "ELEMENT_SET_NO": "999",
        "REV_AT_EPOCH": "11667",
        "BSTAR": "0.00000000000000",
        "MEAN_MOTION_DOT": "-0.00000049",
        "MEAN_MOTION_DDOT": "0.0000000000000",
        "SEMIMAJOR_AXIS": "25507.702",
        "PERIOD": "675.720",
        "APOAPSIS": "19134.947",
        "PERIAPSIS": "19124.188",
        "OBJECT_TYPE": "PAYLOAD",
        "RCS_SIZE": "LARGE",
        "COUNTRY_CODE": "CIS",
        "LAUNCH_DATE": "2010-03-01",
        "SITE": "TTMTR",
        "DECAY_DATE": null,
        "FILE": "4657142",
        "GP_ID": "282082501",
        "TLE_LINE0": "0 COSMOS 2460 (GLONASS)",
        "TLE_LINE1": "1 36402U 10007C   25061.23818578 -.00000049  00000-0  00000-0 0  9993",
        "TLE_LINE2": "2 36402  65.6773 330.3938 0002109 358.2719 119.7581  2.13106037116673"
    }
]